[{"OBJECT_NAME":"ONEWEB-0237","OBJECT_ID":"2021-045D","EPOCH":"2026-03-09T16:05:45.604608","MEAN_MOTION":13.15547256,"ECCENTRICITY":0.00016343,"INCLINATION":87.8938,"RA_OF_ASC_NODE":279.0792,"ARG_OF_PERICENTER":99.0562,"MEAN_ANOMALY":261.0753,"EPHEMERIS_TYPE":0,"CLASSIFICATION_TYPE":"U","NORAD_CAT_ID":48770,"ELEMENT_SET_NO":999,"REV_AT_EPOCH":23130,"BSTAR":-0.00019473263,"MEAN_MOTION_DOT":-6.0e-7,"MEAN_MOTION_DDOT":0},{"OBJECT_NAME":"OBJECT G","OBJECT_ID":"2021-014G","EPOCH":"2026-03-09T15:36:30.755808","MEAN_MOTION":13.41597045,"ECCENTRICITY":0.0151861,"INCLINATION":63.396,"RA_OF_ASC_NODE":124.6852,"ARG_OF_PERICENTER":358.9657,"MEAN_ANOMALY":1.1031,"EPHEMERIS_TYPE":0,"CLASSIFICATION_TYPE":"U","NORAD_CAT_ID":47697,"ELEMENT_SET_NO":999,"REV_AT_EPOCH":24664,"BSTAR":0.00031318,"MEAN_MOTION_DOT":9.8e-7,"MEAN_MOTION_DDOT":0}]
